CHINASAT 1C (ZX 1C)     
1 41103U 15073A   16219.56949814 -.00000171  00000-0  00000+0 0  9999
2 41103   0.0358 239.4763 0001327 296.3641  66.2385  1.00270404  2555
ELEKTRO-L 2             
1 41105U 15074A   16219.56964861 -.00000134  00000-0  00000+0 0  9990
2 41105   0.0173 343.8153 0002124 151.0330 103.4841  1.00270043  2407
COSMOS 2513             
1 41121U 15075A   16218.68253061 -.00000161  00000-0  00000-0 0  9995
2 41121   0.0446  72.8854 0002499  72.6219 135.0657  1.00270784  2479
EXPRESS-AMU1            
1 41191U 15082A   16219.40337084  .00000135  00000-0  00000+0 0  9998
2 41191   0.0221  65.3913 0001708  66.2664   4.9665  1.00272162  2391
GAOFEN 4                
1 41194U 15083A   16219.58825631 -.00000355  00000-0  00000+0 0  9996
2 41194   0.1584 249.7542 0002700 351.9559  31.2909  1.00270553  2377
BELINTERSAT-1           
1 41238U 16001A   16218.17852635  .00000082  00000-0  10000-3 0  9995
2 41238   0.0150  85.8008 0001129  25.6063 318.5207  1.00275362  2150
IRNSS-1E                
1 41241U 16003A   16217.15378914  .00000000  00000-0  10000-3 0  9991
2 41241  28.2987 120.2651 0018883 185.8976 174.0831  1.00266876  2078
INTELSAT 29E (IS-29E)   
1 41308U 16004A   16217.43467104  .00000000  00000-0  10000-3 0  9997
2 41308   0.0468  47.6007 0005311  47.2142 325.0283  1.00264028  1726
EUTELSAT 9B             
1 41310U 16005A   16217.10523940  .00000036  00000-0  00000-0 0  9991
2 41310   0.0450 158.5067 0000616 208.3301 353.1436  1.00275886  1982
EUTELSAT 65 WEST A      
1 41382U 16014A   16217.31082102 -.00000302  00000-0  00000-0 0  9990
2 41382   0.0365  16.3836 0001468 123.5512 220.0561  1.00272144  1456
IRNSS-1F                
1 41384U 16015A   16218.79116764  .00000135  00000-0  00000+0 0  9990
2 41384   4.8121 271.9355 0022500 185.6569 174.3727  1.00271750  1576
BEIDOU IGSO 6           
1 41434U 16021A   16218.55434162 -.00000125  00000-0  10000-3 0  9997
2 41434  55.1202  75.8837 0025177 174.6501 356.9871  1.00262322  1364
IRNSS-1G                
1 41469U 16027A   16218.52533798 -.00000358  00000-0  00000-0 0  9997
2 41469   4.8902 273.1069 0002062 193.9740 166.0863  1.00275645  1078
JCSAT-14                
1 41471U 16028A   16218.69824974 -.00000188  00000-0  00000+0 0  9998
2 41471   0.0200 268.4024 0001897 216.4520 235.1635  1.00269426   973
BRISAT                  
1 41591U 16039A   16216.93486782  .00000000  00000-0  10000-3 0  9996
2 41591   0.0280  78.0954 0001266   0.4875   1.3682  1.00264514   557
ECHOSTAR 18             
1 41592U 16039B   16218.31371329 -.00000295  00000-0  00000+0 0  9993
2 41592   0.0171 301.8585 0001446 195.0887 223.0642  1.00268360   527
